{"type": "FeatureCollection", "features": [{"type": "Feature", "properties": {"norad_id": 24946, "name": "IRIDIUM 33", "group": "iridium-33-debris", "lat": -0.6948223091842453, "lon": -115.59869646400455, "alt_km": 772.3786393478849, "timestamp": "2025-12-21T22:41:41.844020+00:00", "meta": {"OBJECT_NAME": "IRIDIUM 33", "OBJECT_ID": "1997-051C", "EPOCH": "2025-12-21T13:29:19.791168", "MEAN_MOTION": 14.35043038, "ECCENTRICITY": 0.00080908, "INCLINATION": 86.3862, "RA_OF_ASC_NODE": 64.5184, "ARG_OF_PERICENTER": 171.0601, "MEAN_ANOMALY": 189.0741, "EPHEMERIS_TYPE": 0, "CLASSIFICATION_TYPE": "U", "NORAD_CAT_ID": 24946, "ELEMENT_SET_NO": 999, "REV_AT_EPOCH": 47961, "BSTAR": 9.2433948e-05, "MEAN_MOTION_DOT": 2.83e-06, "MEAN_MOTION_DDOT": 0}, "tle": {"line1": "1 24946U 97051C   25355.56203462  .00000283  00000+0  92434-4 0  9993", "line2": "2 24946  86.3862  64.5184 0008090 171.0601 189.0741 14.35043038479619"}}, "geometry": {"type": "Point", "coordinates": [-115.59869646400455, -0.6948223091842453]}}, {"type": "Feature", "properties": {"norad_id": 33773, "name": "IRIDIUM 33 DEB", "group": "iridium-33-debris", "lat": 49.438972200044184, "lon": 60.906318829179774, "alt_km": 740.0865269047745, "timestamp": "2025-12-21T22:41:41.844045+00:00", "meta": {"OBJECT_NAME": "IRIDIUM 33 DEB", "OBJECT_ID": "1997-051L", "EPOCH": "2025-12-21T14:08:46.577472", "MEAN_MOTION": 14.43274227, "ECCENTRICITY": 0.0013137, "INCLINATION": 86.4001, "RA_OF_ASC_NODE": 56.8393, "ARG_OF_PERICENTER": 120.8294, "MEAN_ANOMALY": 239.4201, "EPHEMERIS_TYPE": 0, "CLASSIFICATION_TYPE": "U", "NORAD_CAT_ID": 33773, "ELEMENT_SET_NO": 999, "REV_AT_EPOCH": 88475, "BSTAR": 0.00023085818, "MEAN_MOTION_DOT": 7.98e-06, "MEAN_MOTION_DDOT": 0}, "tle": {"line1": "1 33773U 97051L   25355.58942798  .00000798  00000+0  23086-3 0  9992", "line2": "2 33773  86.4001  56.8393 0013137 120.8294 239.4201 14.43274227884758"}}, "geometry": {"type": "Point", "coordinates": [60.906318829179774, 49.438972200044184]}}, {"type": "Feature", "properties": {"norad_id": 33775, "name": "IRIDIUM 33 DEB", "group": "iridium-33-debris", "lat": 73.55055673912133, "lon": 58.06441599520671, "alt_km": 740.1578888991135, "timestamp": "2025-12-21T22:41:41.844059+00:00", "meta": {"OBJECT_NAME": "IRIDIUM 33 DEB", "OBJECT_ID": "1997-051N", "EPOCH": "2025-12-21T14:37:50.869920", "MEAN_MOTION": 14.41485837, "ECCENTRICITY": 0.00150882, "INCLINATION": 86.3627, "RA_OF_ASC_NODE": 45.7665, "ARG_OF_PERICENTER": 128.1119, "MEAN_ANOMALY": 3.4564, "EPHEMERIS_TYPE": 0, "CLASSIFICATION_TYPE": "U", "NORAD_CAT_ID": 33775, "ELEMENT_SET_NO": 999, "REV_AT_EPOCH": 88268, "BSTAR": 0.00024417836, "MEAN_MOTION_DOT": 8.13e-06, "MEAN_MOTION_DDOT": 0}, "tle": {"line1": "1 33775U 97051N   25355.60961655  .00000813  00000+0  24418-3 0  9998", "line2": "2 33775  86.3627  45.7665 0015088 128.1119   3.4564 14.41485837882686"}}, "geometry": {"type": "Point", "coordinates": [58.06441599520671, 73.55055673912133]}}, {"type": "Feature", "properties": {"norad_id": 33776, "name": "IRIDIUM 33 DEB", "group": "iridium-33-debris", "lat": -16.921443163945415, "lon": -101.99363996454534, "alt_km": 760.4065109558496, "timestamp": "2025-12-21T22:41:41.844071+00:00", "meta": {"OBJECT_NAME": "IRIDIUM 33 DEB", "OBJECT_ID": "1997-051P", "EPOCH": "2025-12-21T05:21:01.511424", "MEAN_MOTION": 14.38249202, "ECCENTRICITY": 0.0015311, "INCLINATION": 86.4033, "RA_OF_ASC_NODE": 77.2134, "ARG_OF_PERICENTER": 163.1939, "MEAN_ANOMALY": 254.0485, "EPHEMERIS_TYPE": 0, "CLASSIFICATION_TYPE": "U", "NORAD_CAT_ID": 33776, "ELEMENT_SET_NO": 999, "REV_AT_EPOCH": 88204, "BSTAR": 0.00022734, "MEAN_MOTION_DOT": 7.11e-06, "MEAN_MOTION_DDOT": 0}, "tle": {"line1": "1 33776U 97051P   25355.22293416  .00000711  00000+0  22734-3 0  9996", "line2": "2 33776  86.4033  77.2134 0015311 163.1939 254.0485 14.38249202882044"}}, "geometry": {"type": "Point", "coordinates": [-101.99363996454534, -16.921443163945415]}}, {"type": "Feature", "properties": {"norad_id": 33777, "name": "IRIDIUM 33 DEB", "group": "iridium-33-debris", "lat": -20.40166090186577, "lon": -147.45134882110938, "alt_km": 708.3740066356067, "timestamp": "2025-12-21T22:41:41.844083+00:00", "meta": {"OBJECT_NAME": "IRIDIUM 33 DEB", "OBJECT_ID": "1997-051Q", "EPOCH": "2025-12-21T13:31:41.929536", "MEAN_MOTION": 14.55669483, "ECCENTRICITY": 0.00058959, "INCLINATION": 86.3773, "RA_OF_ASC_NODE": 31.3646, "ARG_OF_PERICENTER": 210.8728, "MEAN_ANOMALY": 149.2134, "EPHEMERIS_TYPE": 0, "CLASSIFICATION_TYPE": "U", "NORAD_CAT_ID": 33777, "ELEMENT_SET_NO": 999, "REV_AT_EPOCH": 88662, "BSTAR": 0.00059970111, "MEAN_MOTION_DOT": 2.64e-05, "MEAN_MOTION_DDOT": 0}, "tle": {"line1": "1 33777U 97051Q   25355.56367974  .00002640  00000+0  59970-3 0  9990", "line2": "2 33777  86.3773  31.3646 0005895 210.8728 149.2134 14.55669483886626"}}, "geometry": {"type": "Point", "coordinates": [-147.45134882110938, -20.40166090186577]}}, {"type": "Feature", "properties": {"norad_id": 33850, "name": "IRIDIUM 33 DEB", "group": "iridium-33-debris", "lat": 76.8158698553803, "lon": 42.07435845023524, "alt_km": 739.0069679618346, "timestamp": "2025-12-21T22:41:41.844094+00:00", "meta": {"OBJECT_NAME": "IRIDIUM 33 DEB", "OBJECT_ID": "1997-051T", "EPOCH": "2025-12-21T12:54:25.325568", "MEAN_MOTION": 14.4216572, "ECCENTRICITY": 0.00130293, "INCLINATION": 86.3408, "RA_OF_ASC_NODE": 26.3962, "ARG_OF_PERICENTER": 134.7554, "MEAN_ANOMALY": 346.6938, "EPHEMERIS_TYPE": 0, "CLASSIFICATION_TYPE": "U", "NORAD_CAT_ID": 33850, "ELEMENT_SET_NO": 999, "REV_AT_EPOCH": 88279, "BSTAR": 0.00030357281, "MEAN_MOTION_DOT": 1.019e-05, "MEAN_MOTION_DDOT": 0}, "tle": {"line1": "1 33850U 97051T   25355.53779312  .00001019  00000+0  30357-3 0  9999", "line2": "2 33850  86.3408  26.3962 0013029 134.7554 346.6938 14.42165720882797"}}, "geometry": {"type": "Point", "coordinates": [42.07435845023524, 76.8158698553803]}}, {"type": "Feature", "properties": {"norad_id": 33853, "name": "IRIDIUM 33 DEB", "group": "iridium-33-debris", "lat": 66.68623872029066, "lon": 156.43001964409433, "alt_km": 899.1376284251219, "timestamp": "2025-12-21T22:41:41.844106+00:00", "meta": {"OBJECT_NAME": "IRIDIUM 33 DEB", "OBJECT_ID": "1997-051W", "EPOCH": "2025-12-20T22:14:35.888928", "MEAN_MOTION": 13.9910315, "ECCENTRICITY": 0.0207332, "INCLINATION": 85.9999, "RA_OF_ASC_NODE": 346.2208, "ARG_OF_PERICENTER": 210.5493, "MEAN_ANOMALY": 176.3282, "EPHEMERIS_TYPE": 0, "CLASSIFICATION_TYPE": "U", "NORAD_CAT_ID": 33853, "ELEMENT_SET_NO": 999, "REV_AT_EPOCH": 85460, "BSTAR": 0.0010168, "MEAN_MOTION_DOT": 1.786e-05, "MEAN_MOTION_DDOT": 0}, "tle": {"line1": "1 33853U 97051W   25354.92680427  .00001786  00000+0  10168-2 0  9990", "line2": "2 33853  85.9999 346.2208 0207332 210.5493 176.3282 13.99103150854603"}}, "geometry": {"type": "Point", "coordinates": [156.43001964409433, 66.68623872029066]}}, {"type": "Feature", "properties": {"norad_id": 33860, "name": "IRIDIUM 33 DEB", "group": "iridium-33-debris", "lat": 52.324900641296104, "lon": -161.53689498047734, "alt_km": 668.7225615929055, "timestamp": "2025-12-21T22:41:41.844116+00:00", "meta": {"OBJECT_NAME": "IRIDIUM 33 DEB", "OBJECT_ID": "1997-051AD", "EPOCH": "2025-12-21T13:01:46.627392", "MEAN_MOTION": 14.67463908, "ECCENTRICITY": 0.00063803, "INCLINATION": 86.3822, "RA_OF_ASC_NODE": 23.3411, "ARG_OF_PERICENTER": 324.1868, "MEAN_ANOMALY": 197.1057, "EPHEMERIS_TYPE": 0, "CLASSIFICATION_TYPE": "U", "NORAD_CAT_ID": 33860, "ELEMENT_SET_NO": 999, "REV_AT_EPOCH": 88851, "BSTAR": 0.00083483407, "MEAN_MOTION_DOT": 4.749e-05, "MEAN_MOTION_DDOT": 0}, "tle": {"line1": "1 33860U 97051AD  25355.54290078  .00004749  00000+0  83483-3 0  9999", "line2": "2 33860  86.3822  23.3411 0006380 324.1868 197.1057 14.67463908888512"}}, "geometry": {"type": "Point", "coordinates": [-161.53689498047734, 52.324900641296104]}}, {"type": "Feature", "properties": {"norad_id": 33862, "name": "IRIDIUM 33 DEB", "group": "iridium-33-debris", "lat": -52.80592453690596, "lon": -141.78126823038903, "alt_km": 705.2065683012806, "timestamp": "2025-12-21T22:41:41.844127+00:00", "meta": {"OBJECT_NAME": "IRIDIUM 33 DEB", "OBJECT_ID": "1997-051AF", "EPOCH": "2025-12-21T13:59:31.257888", "MEAN_MOTION": 14.69601315, "ECCENTRICITY": 0.00525537, "INCLINATION": 86.4078, "RA_OF_ASC_NODE": 33.6303, "ARG_OF_PERICENTER": 39.5195, "MEAN_ANOMALY": 76.2806, "EPHEMERIS_TYPE": 0, "CLASSIFICATION_TYPE": "U", "NORAD_CAT_ID": 33862, "ELEMENT_SET_NO": 999, "REV_AT_EPOCH": 88953, "BSTAR": 0.0010364173, "MEAN_MOTION_DOT": 6.314e-05, "MEAN_MOTION_DDOT": 0}, "tle": {"line1": "1 33862U 97051AF  25355.58300067  .00006314  00000+0  10364-2 0  9992", "line2": "2 33862  86.4078  33.6303 0052553  39.5195  76.2806 14.69601315889535"}}, "geometry": {"type": "Point", "coordinates": [-141.78126823038903, -52.80592453690596]}}, {"type": "Feature", "properties": {"norad_id": 33866, "name": "IRIDIUM 33 DEB", "group": "iridium-33-debris", "lat": -84.1704042167548, "lon": 49.812323199307706, "alt_km": 880.0140759711139, "timestamp": "2025-12-21T22:41:41.844137+00:00", "meta": {"OBJECT_NAME": "IRIDIUM 33 DEB", "OBJECT_ID": "1997-051AK", "EPOCH": "2025-12-21T06:30:23.838336", "MEAN_MOTION": 14.25298734, "ECCENTRICITY": 0.0115015, "INCLINATION": 86.3001, "RA_OF_ASC_NODE": 89.4265, "ARG_OF_PERICENTER": 134.3497, "MEAN_ANOMALY": 280.5396, "EPHEMERIS_TYPE": 0, "CLASSIFICATION_TYPE": "U", "NORAD_CAT_ID": 33866, "ELEMENT_SET_NO": 999, "REV_AT_EPOCH": 86932, "BSTAR": 0.00042898, "MEAN_MOTION_DOT": 1.102e-05, "MEAN_MOTION_DDOT": 0}, "tle": {"line1": "1 33866U 97051AK  25355.27110924  .00001102  00000+0  42898-3 0  9991", "line2": "2 33866  86.3001  89.4265 0115015 134.3497 280.5396 14.25298734869320"}}, "geometry": {"type": "Point", "coordinates": [49.812323199307706, -84.1704042167548]}}]}